STARLINK-36711          
1 68040U 26041A   26091.22966330  .00038788  00000+0  25547-3 0  9999
2 68040  53.1564 309.9065 0000714  40.2418 319.8655 15.75290125  4779
STARLINK-36825          
1 68041U 26041B   26091.50001156  .00102036  00000+0  66319-3 0  9997
2 68041  53.1574 307.9291 0000704 100.6508 302.4677 15.75190678  6046
STARLINK-36925          
1 68042U 26041C   26091.50001156  .00052831  00000+0  34705-3 0  9999
2 68042  53.1559 308.5651 0000708  87.5601   4.6528 15.75213054  6048
STARLINK-36902          
1 68043U 26041D   26091.12083127  .00286914  00000+0  18048-2 0  9998
2 68043  53.1587 309.9203 0000563  70.6156 289.4925 15.75343125  4769
STARLINK-36966          
1 68044U 26041E   26091.16200464  .00336254  00000+0  21010-2 0  9994
2 68044  53.1578 310.1949 0001038  64.4574 295.6554 15.75354703  4765
STARLINK-36864          
1 68045U 26041F   26091.16167920  .00323354  00000+0  20214-2 0  9996
2 68045  53.1581 310.1924 0000652  30.5863 329.5195 15.75379642  4766
STARLINK-36321          
1 68046U 26041G   26091.00756035  .00348040  00000+0  21794-2 0  9994
2 68046  53.1566 310.6413 0001302  47.9370 312.1761 15.75270715  4742
STARLINK-36181          
1 68047U 26041H   26091.00003471  .00042871  00000+0  28267-3 0  9990
2 68047  53.1580 310.4702 0001150  56.7976   3.6447 15.75218076  5846
STARLINK-36318          
1 68048U 26041J   26091.09403325  .00246101  00000+0  15592-2 0  9990
2 68048  53.1588 310.4791 0000847  42.5254 317.5832 15.75299896  4750
STARLINK-36885          
1 68049U 26041K   26091.09369558  .00145021  00000+0  93092-3 0  9991
2 68049  53.1596 310.4762 0000676 129.4073 230.7008 15.75316665  4757
STARLINK-36945          
1 68050U 26041L   26091.24804560  .00177489  00000+0  11345-2 0  9990
2 68050  53.1592 309.2917 0001786 202.5999 157.4943 15.75305976  4785
STARLINK-35911          
1 68051U 26041M   26090.98973270  .00202496  00000+0  12900-2 0  9991
2 68051  53.1589 310.5220 0000893  54.0479 306.0624 15.75305415  4747
STARLINK-35808          
1 68052U 26041N   26091.19822519  .00131282  00000+0  84605-3 0  9991
2 68052  53.1560 309.6963 0001084  51.2041 308.9076 15.75274331  4774
STARLINK-36919          
1 68053U 26041P   26091.23897232  .00232895  00000+0  14787-2 0  9996
2 68053  53.1568 309.2290 0001151 175.3889 184.7142 15.75289536  4783
STARLINK-36924          
1 68054U 26041Q   26091.02604203  .00441320  00000+0  27311-2 0  9990
2 68054  53.1593 310.7646 0000999  37.6400 322.4690 15.75275773  4745
STARLINK-35998          
1 68055U 26041R   26091.19335242  .00251464  00000+0  15892-2 0  9992
2 68055  53.1576 309.6635 0000234 130.2331 229.8710 15.75340421  4776
STARLINK-36845          
1 68056U 26041S   26091.18881766  .00104778  00000+0  67740-3 0  9994
2 68056  53.1585 309.6341 0000721  76.0127 284.0974 15.75301446  4771
STARLINK-36954          
1 68057U 26041T   26091.21604174  .00199518  00000+0  12688-2 0  9991
2 68057  53.1587 309.8156 0000181 161.9368 198.1658 15.75354703  4779
STARLINK-36899          
1 68058U 26041U   26091.14838712  .00357506  00000+0  22270-2 0  9992
2 68058  53.1583 310.1040 0000917  65.0549 295.0566 15.75362976  4760
STARLINK-36917          
1 68059U 26041V   26091.13931134  .00366394  00000+0  23072-2 0  9990
2 68059  53.1564 310.0431 0001411 325.8505  34.2424 15.75089391  4765
STARLINK-36959          
1 68060U 26041W   26091.14385170  .00329226  00000+0  20593-2 0  9994
2 68060  53.1565 310.0705 0000946  40.4982 319.6108 15.75350155  4761
STARLINK-36915          
1 68061U 26041X   26090.99880824  .00162747  00000+0  10437-2 0  9992
2 68061  53.1584 310.5801 0001067 104.0667 256.0472 15.75279614  4743
STARLINK-36952          
1 68062U 26041Y   26091.14806193  .00332435  00000+0  20782-2 0  9995
2 68062  53.1579 310.0997 0000682  68.4750 291.6343 15.75353921  4765
STARLINK-37000          
1 68063U 26041Z   26091.50001156  .00172189  00000+0  11091-2 0  9993
2 68063  53.1568 308.1416 0000776  86.6941 211.5132 15.75148073  6046
STARLINK-36996          
1 68064U 26041AA  26091.17098853  .00287976  00000+0  18142-2 0  9992
2 68064  53.1580 309.5139 0000905 128.6981 231.4120 15.75306338  4779
STARLINK-36836          
1 68065U 26041AB  26091.17066005  .00282038  00000+0  17789-2 0  9997
2 68065  53.1572 309.5110 0000390  79.9058 280.2006 15.75294837  4776
STARLINK-36976          
1 68066U 26041AC  26091.13930809  .00239450  00000+0  15178-2 0  9996
2 68066  53.1560 310.0392 0001290 261.6735  98.4139 15.75308148  4761
STARLINK-36929          
1 68067U 26041AD  26091.01663699  .00267150  00000+0  16906-2 0  9992
2 68067  53.1572 310.6986 0000799  64.2813 295.8289 15.75264005  4747
STARLINK-36990          
1 68068U 26041AE  26091.20961351  .00335111  00000+0  16296-2 0  9995
2 68068  53.1569 309.0314 0000871  34.6658 325.4421 15.80962162  4787
STARLINK-36766          
1 68069U 26042A   26091.50001156  .00044849  00000+0  29552-3 0  9993
2 68069  53.1582  80.5767 0001189  73.1490 124.6334 15.75213224  5708
STARLINK-36823          
1 68070U 26042B   26091.26483014  .00249621  00000+0  12282-2 0  9991
2 68070  53.1563  81.6298 0001082  38.4869 321.6230 15.80941111  5653
STARLINK-36970          
1 68071U 26042C   26091.35222493  .00182534  00000+0  11670-2 0  9993
2 68071  53.1585  81.4728 0001734 114.8825 245.2376 15.75286596  5665
STARLINK-36972          
1 68072U 26042D   26091.50001156  .00043273  00000+0  28526-3 0  9997
2 68072  53.1590  80.4748 0001262  92.0724 155.3543 15.75218561  5714
STARLINK-37074          
1 68073U 26042E   26091.46970867  .00320516  00000+0  20101-2 0  9995
2 68073  53.1572  80.7784 0001039 140.3686 219.7410 15.75314701  5681
STARLINK-37045          
1 68074U 26042F   26091.42928832  .00164343  00000+0  10528-2 0  9993
2 68074  53.1584  81.2485 0001263 105.0018 255.1142 15.75298433  5673
STARLINK-37026          
1 68075U 26042G   26091.18490697  .00305707  00000+0  19264-2 0  9997
2 68075  53.1557  82.5718 0001097 102.4435 257.6708 15.75248719  5639
STARLINK-37023          
1 68076U 26042H   26091.43349889  .00149934  00000+0  96299-3 0  9994
2 68076  53.1564  81.2746 0001047 107.7966 252.3168 15.75287163  5679
STARLINK-37036          
1 68077U 26042J   26091.37038423  .00235557  00000+0  14945-2 0  9991
2 68077  53.1563  81.5919 0001602 102.0271 258.0929 15.75298227  5668
STARLINK-36973          
1 68078U 26042K   26091.34315212  .00209516  00000+0  13343-2 0  9990
2 68078  53.1577  81.4106 0001622 104.7191 255.4010 15.75291657  5665
STARLINK-37063          
1 68079U 26042L   26091.38526432  .00268212  00000+0  13152-2 0  9999
2 68079  53.1562  80.9556 0000919  89.0150 271.0978 15.80963010  5674
STARLINK-37051          
1 68080U 26042M   26091.22079516  .00203425  00000+0  12955-2 0  9995
2 68080  53.1584  82.0718 0001341  75.0230 285.0939 15.75310407  5646
STARLINK-37066          
1 68081U 26042N   26091.55130826  .00397748  00000+0  24644-2 0  9994
2 68081  53.1592  80.5839 0002987 148.4067 211.7133 15.75372354  5699
STARLINK-37054          
1 68082U 26042P   26091.19260123  .00294189  00000+0  14390-2 0  9991
2 68082  53.1564  81.8854 0001845 136.9361 223.1806 15.80945289  5649
STARLINK-37065          
1 68083U 26042Q   26091.42895868  .00211237  00000+0  13448-2 0  9994
2 68083  53.1581  81.2442 0001540 138.4552 221.6585 15.75294470  5670
STARLINK-37037          
1 68084U 26042R   26091.22046706  .00212614  00000+0  13521-2 0  9994
2 68084  53.1582  82.0701 0001128 110.3772 249.7370 15.75315388  5646
STARLINK-37068          
1 68085U 26042S   26091.50001156  .00049621  00000+0  32641-3 0  9997
2 68085  53.1580  80.5267 0001168  84.9823 136.6896 15.75207874  5717
STARLINK-37067          
1 68086U 26042T   26091.50001156 -.01847989  00000+0 -12506-1 0  9990
2 68086  53.1585  80.3204 0000737  71.8433 250.7708 15.77440926  5714
STARLINK-37062          
1 68087U 26042U   26091.50001156  .00059606  00000+0  39101-3 0  9991
2 68087  53.1589  80.3646 0001379 104.3696 196.4467 15.75195097  5717
STARLINK-37059          
1 68088U 26042V   26091.20231397  .00246889  00000+0  15665-2 0  9990
2 68088  53.1594  81.9479 0001787  23.1420 336.9680 15.75264086  5646
STARLINK-37004          
1 68089U 26042W   26091.20684848  .00145313  00000+0  93322-3 0  9991
2 68089  53.1588  81.9782 0001238 144.7542 215.3560 15.75305055  5642
STARLINK-36320          
1 68090U 26042X   26086.15385821  .00375248  00000+0  23254-2 0  9998
2 68090  53.1593 107.3571 0002763 139.4736 220.6491 15.75432358  4849
STARLINK-36324          
1 68091U 26042Y   26091.23441119  .00192012  00000+0  12249-2 0  9995
2 68091  53.1588  82.1627 0001021 112.5052 247.6076 15.75307595  5646
STARLINK-36896          
1 68092U 26042Z   26091.35190020  .00212340  00000+0  13519-2 0  9999
2 68092  53.1583  81.4695 0001443  93.4589 266.6597 15.75289540  5658
STARLINK-36251          
1 68093U 26042AA  26091.18471706  .00377764  00000+0  20321-2 0  9995
2 68093  53.1610  81.8291 0007588 225.7595 134.2805 15.78602018  5631
STARLINK-36787          
1 68094U 26042AB  26091.54709958  .00216517  00000+0  13760-2 0  9996
2 68094  53.1586  80.5550 0001229 134.3977 225.7144 15.75318915  5687
STARLINK-36790          
1 68095U 26042AC  26091.14827071  .00290052  00000+0  18239-2 0  9992
2 68095  53.1583  82.3259 0000757  60.6408 299.4688 15.75341767  5622
STARLINK-36328          
1 68096U 26042AD  26091.50001156  .00080421  00000+0  52475-3 0  9999
2 68096  53.1587  80.4193 0001073 102.3154 170.8785 15.75198016  5714
STARLINK-36853          
1 68097U 26042AE  26091.50001156  .00008887  00000+0  62080-4 0  9990
2 68097  53.1587  80.3668 0001156 103.7258 195.2018 15.75240625  5728
GLOBAL-34               
1 68098U 26043A   26090.97110280  .00015082  00000+0  48527-3 0  9995
2 68098  42.0212 306.8560 0003608  86.3893 273.7357 15.31964864  3987
